#aP2000  7 17  0  0  0.00000000     192 ORBIT IGS97 HLM  IGS
## 1071  86400.00000000   900.00000000 51742 0.0000000000000
+   27     1  2  3  4  5  6  7  8  9 10 11 13 15 16 17 19 20
+         21 22 23 24 25 26 27 29 30 31  0  0  0  0  0  0  0
+          0  0  0  0  0  0  0  0  0  0  0  0  0  0  0  0  0
+          0  0  0  0  0  0  0  0  0  0  0  0  0  0  0  0  0
+          0  0  0  0  0  0  0  0  0  0  0  0  0  0  0  0  0
++         0  0  0  0  0  0  0  0  0  0  0  0  0  0  0  0  0
++         0  0  0  0  0  0  0  0  0  0  0  0  0  0  0  0  0
++         0  0  0  0  0  0  0  0  0  0  0  0  0  0  0  0  0
++         0  0  0  0  0  0  0  0  0  0  0  0  0  0  0  0  0
++         0  0  0  0  0  0  0  0  0  0  0  0  0  0  0  0  0
%c CC CC CCC CCC CCCC CCCC CCCC CCCC CCCCC CCCCC CCCCC CCCCC
%c CC CC CCC CCC CCCC CCCC CCCC CCCC CCCCC CCCCC CCCCC CCCCC
%f   .0000000   .000000000   .00000000000   .000000000000000
%f   .0000000   .000000000   .00000000000   .000000000000000
%i    0    0    0    0      0      0      0      0         0
%i    0    0    0    0      0      0      0      0         0
/* NOTE: CONCATENATED SP3 FILE CREATED WITH PROGRAM CAT_SP3B
/* CCCCCCCCCCCCCCCCCCCCCCCCCCCCCCCCCCCCCCCCCCCCCCCCCCCCCCCCC
/* CCCCCCCCCCCCCCCCCCCCCCCCCCCCCCCCCCCCCCCCCCCCCCCCCCCCCCCCC
/* CCCCCCCCCCCCCCCCCCCCCCCCCCCCCCCCCCCCCCCCCCCCCCCCCCCCCCCCC
*  2000  7 18 21  0  0.00000000
P  1 -13692.782323   8028.971728 -21140.262173    136.933407
P  2   5309.910236  15271.528521  21618.823330   -243.762712
P  3 -23255.593617 -12004.397370   4596.822078     23.081478
P  4   7906.284884  19780.250497 -15642.823074    234.033689
P  5  22984.717559 -13031.410959  -2122.830459    257.436609
P  6   5868.813824 -14629.742428 -21196.425653      1.122396
P  7  14477.510171  19784.711707  10870.519868    174.668501
P  8     49.112039  25895.277573   5395.450380    291.825230
P  9  14824.878687 -10711.748707  18918.258881    -54.022927
P 10  22108.568296   1381.096341 -14796.369739     53.832458
P 11 -15100.202085  11408.453558  18691.847442    482.690494
P 13  16311.055420  19309.502352  -8324.386547   -809.255495
P 15 -11347.934634 -12652.085393  20159.693491    837.725516
P 16 -14554.194814  16242.517060 -15073.542284    -10.213180
P 17   8303.486112 -24579.656062  -4057.867851   -264.839301
P 19 -10449.695818  20530.269985 -12900.647198    237.453313
P 20 -22548.401195  13304.454192  -4766.150138 999999.999999
P 21  -7084.361745 -13330.914391  22165.250080     12.912125
P 22 -20089.332528  -4335.214758 -17332.713303    114.642845
P 23  10032.639638 -16896.359139  18210.595049     12.956810
P 24  12571.688457   9728.064846 -21005.648890    764.127770
P 25 -10158.002626 -19102.888077 -15306.351284      6.929957
P 26  21690.148150   2963.278222  15394.651754    512.161616
P 27  -3689.102662  25843.275505  -2213.358394     25.737399
P 29 -11159.236466 -19870.778470  13973.568516    690.408849
P 30  15245.569294 -17398.899106 -13197.528879    -29.712565
P 31 -21688.537629  -2077.738867  15168.427449      4.805113
*  2000  7 18 21 15  0.00000000
P  1 -15593.731785   6554.162632 -20325.816092    136.934700
P  2   3230.349667  16355.752118  21176.077986   -243.766607
P  3 -23401.911548 -12463.097632   1814.907550     23.082894
P  4   7555.832078  21436.895691 -13478.473472    234.072157
P  5  23212.688954 -12776.610079    687.852475    257.438096
P  6   7916.342572 -13230.465639 -21468.389677      1.123974
P  7  13253.740395  19230.746876  13216.687397    174.658361
P  8   -274.056308  26346.393119   2587.835134    291.867896
P  9  14820.695394  -8421.494887  20071.197457    -54.025032
P 10  20540.948196   2272.202197 -16792.172107     53.832668
P 11 -15131.242909   9192.562322  19842.218187    482.710794
P 13  15288.366031  18854.224458 -10890.511503   -809.263213
P 15 -10916.882344 -14888.638130  18844.314019    837.728218
P 16 -16091.764000  16685.186123 -12832.005439    -10.211602
P 17   8406.359673 -23920.464167  -6900.819876   -264.839935
P 19 -10721.719902  18900.057578 -15005.380026    237.461432
P 20 -22997.091674  13234.697108  -1953.751063 999999.999999
P 21  -4835.747308 -14341.449370  22081.809989     12.913602
P 22 -18383.994872  -5424.168970 -18825.564794    114.676286
P 23  11842.907678 -17506.843618  16392.711979     12.957374
P 24  12220.371336  12098.653314 -19974.655925    764.133023
P 25  -9881.543333 -20763.926654 -13233.288401      6.929183
P 26  22933.468416   4020.696983  13259.401230    512.172790
P 27  -4025.269043  25382.564807  -5024.621110     25.737668
P 29  -9666.086968 -19089.849394  16045.085635    690.418564
P 30  16572.661587 -17774.373222 -10856.479139    -29.714942
P 31 -22944.973676  -3153.040899  13044.116811      4.806008
*  2000  7 18 21 30  0.00000000
P  1 -17472.754615   5241.562809 -19156.980937    136.935338
P  2   1258.378425  17506.887751  20384.554971   -243.771026
P  3 -23295.886551 -12758.374656   -998.191930     23.087038
P  4   7307.457523  22850.078720 -11078.607349    234.110742
P  5  23181.615476 -12368.175458   3486.621889    257.438711
P  6  10036.948158 -11930.763532 -21365.534683      1.124561
P  7  11788.675065  18614.960288  15342.325751    174.648334
P  8   -554.424274  26492.092643   -264.777644    291.910565
P  9  14926.302577  -6025.247053  20869.783033    -54.025629
P 10  18839.835535   3349.060530 -18501.204987     53.832446
P 11 -15265.969424   6869.324002  20652.399796    482.731360
P 13  14003.543856  18308.462372 -13270.140944   -809.270844
P 15 -10624.974103 -16975.011814  17198.026783    837.730391
P 16 -17363.224792  17094.643098 -10368.019493    -10.209243
P 17   8502.820434 -22951.621393  -9621.145691   -264.840446
P 19 -11079.902070  17061.228666 -16847.377052    237.469540
P 20 -23168.077767  13035.689645    892.099965 999999.999999
P 21  -2666.733489 -15462.706797  21627.290041     12.916136
P 22 -16605.487652  -6675.112201 -20005.372188    114.709883
P 23  13423.857731 -18120.189963  14298.645840     12.957328
P 24  12009.635308  14344.970697 -18591.968416    764.138080
P 25  -9679.442091 -22186.815680 -10931.715038      6.929674
P 26  24016.177787   4875.076437  10901.842287    512.184072
P 27  -4386.733591  24620.539152  -7745.648350     25.740169
P 29  -7946.840050 -18280.021357  17846.163107    690.427880
P 30  17642.539773 -18079.513911  -8329.779286    -29.716784
P 31 -24034.247345  -4033.567634  10695.825933      4.806092
*  2000  7 18 21 45  0.00000000
P  1 -19283.378620   4102.595635 -17654.480613    136.936752
P  2   -575.379858  18693.088154  19255.368758   -243.775019
P  3 -22919.586170 -12920.859064  -3794.149635     23.091265
P  4   7130.441107  23989.707781  -8485.133586    234.149175
P  5  22913.868352 -11778.839666   6225.005553    257.439019
P  6  12188.355861 -10755.018875 -20890.421539      1.124074
P  7  10095.224995  17976.329919  17212.349961    174.638248
P  8   -828.745240  26328.533231  -3112.826865    291.953155
P  9  15151.802020  -3570.426906  21300.888310    -54.027787
P 10  17051.051556   4612.353829 -19893.882016     53.832373
P 11 -15513.643097   4482.761311  21108.201715    482.751996
P 13  12463.668474  17712.947197 -15422.330479   -809.278119
P 15 -10453.772288 -18866.959914  15250.279094    837.734084
P 16 -18358.548903  17429.387907  -7723.988803    -10.207943
P 17   8631.618484 -21688.939325 -12170.937605   -264.845148
P 19 -11544.635897  15051.011420 -18394.622140    237.477789
P 20 -23078.024177  12674.411141   3722.656389 999999.999999
P 21   -616.904711 -16666.089932  20807.256144     12.916556
P 22 -14795.754638  -8079.164817 -20851.642863    114.743184
P 23  14756.732368 -18695.714378  11962.425815     12.956377
P 24  11923.308536  16420.185591 -16882.597448    764.143158
P 25  -9521.914039 -23346.500833  -8441.978925      6.929303
P 26  24900.156397   5539.612645   8362.051829    512.195497
P 27  -4807.082158  23572.858327 -10327.492145     25.741909
P 29  -6022.017456 -17480.179896  19346.763926    690.437371
P 30  18452.659353 -18275.812810  -5660.356598    -29.717791
P 31 -24919.105116  -4732.644518   8164.544515      4.806289
*  2000  7 18 22  0  0.00000000
P  1 -20979.216460   3140.270868 -15844.864332    136.939315
P  2  -2246.115784  19877.994157  17805.186570   -243.779186
P  3 -22262.808388 -12984.739743  -6524.971723     23.094426
P  4   6989.729357  24833.733070  -5743.395881    234.187807
P  5  22438.157767 -10987.075671   8855.584489    257.439895
P  6  14325.365267  -9720.185180 -20052.149084      1.125161
P  7   8193.941432  17351.721941  18795.878839    174.628300
P  8  -1133.798690  25860.792442  -5907.110553    291.995637
P  9  15499.490145  -1105.849717  21358.056588    -54.028402
P 10  15221.113116   6054.246178 -20945.920009     53.832129
P 11 -15876.157362   2078.509885  21201.475106    482.772723
P 13  10684.423437  17107.549979 -17309.949764   -809.285677
P 15 -10377.839068 -20525.920870  13035.770325    837.737975
P 16 -19076.739693  17648.198140  -4945.618605    -10.206195
P 17   8828.491857 -20157.172947 -14505.659294   -264.847407
P 19 -12129.784276  12911.171352 -19620.394493    237.486840
P 20 -22750.953235  12122.594538   6489.356540 999999.999999
P 21   1279.425510 -17916.781808  19633.445171     12.917413
P 22 -12995.485935  -9619.928664 -21349.165827    114.776429
P 23  15831.034379 -19191.083709   9422.508274     12.955894
P 24  11937.811162  18282.609943 -14877.286975    764.147827
P 25  -9375.787748 -24225.608227  -5807.397882      6.928460
P 26  25551.848831   6034.603428   5682.835793    512.206751
P 27  -5316.538161  22263.633877 -12723.785037     25.739822
P 29  -3919.503567 -16725.765502  20521.850040    690.446877
P 30  19008.685720 -18326.324731  -2893.754033    -29.719772
P 31 -25567.199376  -5270.588026   5494.069924      4.807295
EOF
